[
  {
    "OBJECT_NAME": "STARLINK-31454",
    "OBJECT_ID": "24036S",
    "EPOCH": "2025-11-11T05:42:20.046528",
    "MEAN_MOTION": 15.30197475,
    "ECCENTRICITY": 0.0001456,
    "INCLINATION": 53.1623,
    "RA_OF_ASC_NODE": 268.6127,
    "ARG_OF_PERICENTER": 114.6586,
    "MEAN_ANOMALY": 245.4567,
    "EPHEMERIS_TYPE": 0,
    "CLASSIFICATION_TYPE": "U",
    "NORAD_CAT_ID": 59014,
    "ELEMENT_SET_NO": 999,
    "REV_AT_EPOCH": 9718,
    "BSTAR": 0.00014579,
    "MEAN_MOTION_DOT": 3.961e-05,
    "MEAN_MOTION_DDOT": 0.0,
    "TLE_LINE1": "1 59014U 24036S   25315.23773202  .00003961  00000+0  14579-3 0  9993",
    "TLE_LINE2": "2 59014  53.1623 268.6127 0001456 114.6586 245.4567 15.30197475 97180",
    "COMMENT": "Grouped by shell and plane from TLE"
  },
  {
    "OBJECT_NAME": "STARLINK-31521",
    "OBJECT_ID": "24036T",
    "EPOCH": "2025-11-11T07:14:51.721728",
    "MEAN_MOTION": 15.30208827,
    "ECCENTRICITY": 0.0001177,
    "INCLINATION": 53.1583,
    "RA_OF_ASC_NODE": 268.3009,
    "ARG_OF_PERICENTER": 93.9386,
    "MEAN_ANOMALY": 266.175,
    "EPHEMERIS_TYPE": 0,
    "CLASSIFICATION_TYPE": "U",
    "NORAD_CAT_ID": 59015,
    "ELEMENT_SET_NO": 999,
    "REV_AT_EPOCH": 9719,
    "BSTAR": 0.00011183,
    "MEAN_MOTION_DOT": 2.955e-05,
    "MEAN_MOTION_DDOT": 0.0,
    "TLE_LINE1": "1 59015U 24036T   25315.30198752  .00002955  00000+0  11183-3 0  9993",
    "TLE_LINE2": "2 59015  53.1583 268.3009 0001177  93.9386 266.1750 15.30208827 97198",
    "COMMENT": "Grouped by shell and plane from TLE"
  },
  {
    "OBJECT_NAME": "STARLINK-31527",
    "OBJECT_ID": "24036W",
    "EPOCH": "2025-11-11T07:01:11.284608",
    "MEAN_MOTION": 15.30201538,
    "ECCENTRICITY": 0.0001703,
    "INCLINATION": 53.1612,
    "RA_OF_ASC_NODE": 268.2425,
    "ARG_OF_PERICENTER": 125.8402,
    "MEAN_ANOMALY": 234.2757,
    "EPHEMERIS_TYPE": 0,
    "CLASSIFICATION_TYPE": "U",
    "NORAD_CAT_ID": 59018,
    "ELEMENT_SET_NO": 999,
    "REV_AT_EPOCH": 9719,
    "BSTAR": 3.9708e-05,
    "MEAN_MOTION_DOT": 8.17e-06,
    "MEAN_MOTION_DDOT": 0.0,
    "TLE_LINE1": "1 59018U 24036W   25315.29249172  .00000817  00000+0  39708-4 0  9996",
    "TLE_LINE2": "2 59018  53.1612 268.2425 0001703 125.8402 234.2757 15.30201538 97199",
    "COMMENT": "Grouped by shell and plane from TLE"
  },
  {
    "OBJECT_NAME": "STARLINK-31436",
    "OBJECT_ID": "24036X",
    "EPOCH": "2025-11-11T02:47:54.266784",
    "MEAN_MOTION": 15.30192379,
    "ECCENTRICITY": 0.0001087,
    "INCLINATION": 53.1616,
    "RA_OF_ASC_NODE": 269.2759,
    "ARG_OF_PERICENTER": 97.2947,
    "MEAN_ANOMALY": 262.8177,
    "EPHEMERIS_TYPE": 0,
    "CLASSIFICATION_TYPE": "U",
    "NORAD_CAT_ID": 59019,
    "ELEMENT_SET_NO": 999,
    "REV_AT_EPOCH": 9716,
    "BSTAR": 9.329600000000001e-05,
    "MEAN_MOTION_DOT": 2.404e-05,
    "MEAN_MOTION_DDOT": 0.0,
    "TLE_LINE1": "1 59019U 24036X   25315.11660031  .00002404  00000+0  93296-4 0  9995",
    "TLE_LINE2": "2 59019  53.1616 269.2759 0001087  97.2947 262.8177 15.30192379 97168",
    "COMMENT": "Grouped by shell and plane from TLE"
  },
  {
    "OBJECT_NAME": "STARLINK-31310",
    "OBJECT_ID": "24041U",
    "EPOCH": "2025-11-11T04:34:35.260032",
    "MEAN_MOTION": 15.27602168,
    "ECCENTRICITY": 0.0001116,
    "INCLINATION": 43.003,
    "RA_OF_ASC_NODE": 260.3553,
    "ARG_OF_PERICENTER": 290.8905,
    "MEAN_ANOMALY": 69.1827,
    "EPHEMERIS_TYPE": 0,
    "CLASSIFICATION_TYPE": "U",
    "NORAD_CAT_ID": 59092,
    "ELEMENT_SET_NO": 999,
    "REV_AT_EPOCH": 9614,
    "BSTAR": 0.00024051,
    "MEAN_MOTION_DOT": 6.366e-05,
    "MEAN_MOTION_DDOT": 0.0,
    "TLE_LINE1": "1 59092U 24041U   25315.19068588  .00006366  00000+0  24051-3 0  9992",
    "TLE_LINE2": "2 59092  43.0030 260.3553 0001116 290.8905  69.1827 15.27602168 96144",
    "COMMENT": "Grouped by shell and plane from TLE"
  },
  {
    "OBJECT_NAME": "STARLINK-31635",
    "OBJECT_ID": "24073A",
    "EPOCH": "2025-11-11T05:35:52.679904",
    "MEAN_MOTION": 15.27594403,
    "ECCENTRICITY": 0.0001183,
    "INCLINATION": 42.9978,
    "RA_OF_ASC_NODE": 266.6242,
    "ARG_OF_PERICENTER": 287.1293,
    "MEAN_ANOMALY": 72.9429,
    "EPHEMERIS_TYPE": 0,
    "CLASSIFICATION_TYPE": "U",
    "NORAD_CAT_ID": 59511,
    "ELEMENT_SET_NO": 999,
    "REV_AT_EPOCH": 8806,
    "BSTAR": 5.3712000000000003e-05,
    "MEAN_MOTION_DOT": 1.217e-05,
    "MEAN_MOTION_DDOT": 0.0,
    "TLE_LINE1": "1 59511U 24073A   25315.23324861  .00001217  00000+0  53712-4 0  9994",
    "TLE_LINE2": "2 59511  42.9978 266.6242 0001183 287.1293  72.9429 15.27594403 88060",
    "COMMENT": "Grouped by shell and plane from TLE"
  },
  {
    "OBJECT_NAME": "STARLINK-31650",
    "OBJECT_ID": "24073B",
    "EPOCH": "2025-11-11T06:27:40.873248",
    "MEAN_MOTION": 15.27588515,
    "ECCENTRICITY": 0.0001601,
    "INCLINATION": 43.0037,
    "RA_OF_ASC_NODE": 266.8949,
    "ARG_OF_PERICENTER": 241.5831,
    "MEAN_ANOMALY": 118.4859,
    "EPHEMERIS_TYPE": 0,
    "CLASSIFICATION_TYPE": "U",
    "NORAD_CAT_ID": 59512,
    "ELEMENT_SET_NO": 999,
    "REV_AT_EPOCH": 8806,
    "BSTAR": 9.116900000000001e-05,
    "MEAN_MOTION_DOT": 2.248e-05,
    "MEAN_MOTION_DDOT": 0.0,
    "TLE_LINE1": "1 59512U 24073B   25315.26922307  .00002248  00000+0  91169-4 0  9990",
    "TLE_LINE2": "2 59512  43.0037 266.8949 0001601 241.5831 118.4859 15.27588515 88062",
    "COMMENT": "Grouped by shell and plane from TLE"
  },
  {
    "OBJECT_NAME": "STARLINK-31669",
    "OBJECT_ID": "24073E",
    "EPOCH": "2025-11-11T05:50:42.855648",
    "MEAN_MOTION": 15.27546847,
    "ECCENTRICITY": 0.000112,
    "INCLINATION": 43.0013,
    "RA_OF_ASC_NODE": 266.7002,
    "ARG_OF_PERICENTER": 263.773,
    "MEAN_ANOMALY": 96.2994,
    "EPHEMERIS_TYPE": 0,
    "CLASSIFICATION_TYPE": "U",
    "NORAD_CAT_ID": 59515,
    "ELEMENT_SET_NO": 999,
    "REV_AT_EPOCH": 8806,
    "BSTAR": 0.0,
    "MEAN_MOTION_DOT": -2.834e-05,
    "MEAN_MOTION_DDOT": 0.0,
    "TLE_LINE1": "1 59515U 24073E   25315.24355157 -.00002834  00000+0 -93593-4 0  9990",
    "TLE_LINE2": "2 59515  43.0013 266.7002 0001120 263.7730  96.2994 15.27546847 88063",
    "COMMENT": "Grouped by shell and plane from TLE"
  },
  {
    "OBJECT_NAME": "STARLINK-31671",
    "OBJECT_ID": "24073F",
    "EPOCH": "2025-11-11T05:08:20.001696",
    "MEAN_MOTION": 15.27588254,
    "ECCENTRICITY": 0.0001194,
    "INCLINATION": 43.0027,
    "RA_OF_ASC_NODE": 267.338,
    "ARG_OF_PERICENTER": 278.1107,
    "MEAN_ANOMALY": 81.961,
    "EPHEMERIS_TYPE": 0,
    "CLASSIFICATION_TYPE": "U",
    "NORAD_CAT_ID": 59516,
    "ELEMENT_SET_NO": 999,
    "REV_AT_EPOCH": 8805,
    "BSTAR": 0.00013078000000000002,
    "MEAN_MOTION_DOT": 3.339e-05,
    "MEAN_MOTION_DDOT": 0.0,
    "TLE_LINE1": "1 59516U 24073F   25315.21412039  .00003339  00000+0  13078-3 0  9999",
    "TLE_LINE2": "2 59516  43.0027 267.3380 0001194 278.1107  81.9610 15.27588254 88057",
    "COMMENT": "Grouped by shell and plane from TLE"
  },
  {
    "OBJECT_NAME": "STARLINK-31674",
    "OBJECT_ID": "24073G",
    "EPOCH": "2025-11-11T06:07:20.534592",
    "MEAN_MOTION": 15.27571927,
    "ECCENTRICITY": 2.43e-05,
    "INCLINATION": 43.0017,
    "RA_OF_ASC_NODE": 266.7906,
    "ARG_OF_PERICENTER": 55.2828,
    "MEAN_ANOMALY": 304.8046,
    "EPHEMERIS_TYPE": 0,
    "CLASSIFICATION_TYPE": "U",
    "NORAD_CAT_ID": 59517,
    "ELEMENT_SET_NO": 999,
    "REV_AT_EPOCH": 8806,
    "BSTAR": 0.00025336,
    "MEAN_MOTION_DOT": 6.715e-05,
    "MEAN_MOTION_DDOT": 0.0,
    "TLE_LINE1": "1 59517U 24073G   25315.25509878  .00006715  00000+0  25336-3 0  9993",
    "TLE_LINE2": "2 59517  43.0017 266.7906 0000243  55.2828 304.8046 15.27571927 88062",
    "COMMENT": "Grouped by shell and plane from TLE"
  },
  {
    "OBJECT_NAME": "STARLINK-31370",
    "OBJECT_ID": "24073K",
    "EPOCH": "2025-11-11T06:38:47.477760",
    "MEAN_MOTION": 15.2758383,
    "ECCENTRICITY": 8.11e-05,
    "INCLINATION": 43.003,
    "RA_OF_ASC_NODE": 266.9537,
    "ARG_OF_PERICENTER": 273.5835,
    "MEAN_ANOMALY": 86.4924,
    "EPHEMERIS_TYPE": 0,
    "CLASSIFICATION_TYPE": "U",
    "NORAD_CAT_ID": 59520,
    "ELEMENT_SET_NO": 999,
    "REV_AT_EPOCH": 8806,
    "BSTAR": 0.00014069,
    "MEAN_MOTION_DOT": 3.612e-05,
    "MEAN_MOTION_DDOT": 0.0,
    "TLE_LINE1": "1 59520U 24073K   25315.27693840  .00003612  00000+0  14069-3 0  9996",
    "TLE_LINE2": "2 59520  43.0030 266.9537 0000811 273.5835  86.4924 15.27583830 88061",
    "COMMENT": "Grouped by shell and plane from TLE"
  },
  {
    "OBJECT_NAME": "STARLINK-31404",
    "OBJECT_ID": "24073L",
    "EPOCH": "2025-11-11T05:19:25.270464",
    "MEAN_MOTION": 15.27600251,
    "ECCENTRICITY": 4.15e-05,
    "INCLINATION": 43.0011,
    "RA_OF_ASC_NODE": 267.3955,
    "ARG_OF_PERICENTER": 264.9227,
    "MEAN_ANOMALY": 95.1577,
    "EPHEMERIS_TYPE": 0,
    "CLASSIFICATION_TYPE": "U",
    "NORAD_CAT_ID": 59521,
    "ELEMENT_SET_NO": 999,
    "REV_AT_EPOCH": 8805,
    "BSTAR": 0.00018542,
    "MEAN_MOTION_DOT": 4.847e-05,
    "MEAN_MOTION_DDOT": 0.0,
    "TLE_LINE1": "1 59521U 24073L   25315.22182026  .00004847  00000+0  18542-3 0  9992",
    "TLE_LINE2": "2 59521  43.0011 267.3955 0000415 264.9227  95.1577 15.27600251 88056",
    "COMMENT": "Grouped by shell and plane from TLE"
  },
  {
    "OBJECT_NAME": "STARLINK-31476",
    "OBJECT_ID": "24073N",
    "EPOCH": "2025-11-11T06:33:15.081408",
    "MEAN_MOTION": 15.27583907,
    "ECCENTRICITY": 3.21e-05,
    "INCLINATION": 42.9985,
    "RA_OF_ASC_NODE": 266.9246,
    "ARG_OF_PERICENTER": 134.9956,
    "MEAN_ANOMALY": 225.0922,
    "EPHEMERIS_TYPE": 0,
    "CLASSIFICATION_TYPE": "U",
    "NORAD_CAT_ID": 59523,
    "ELEMENT_SET_NO": 999,
    "REV_AT_EPOCH": 8806,
    "BSTAR": 0.00025561000000000003,
    "MEAN_MOTION_DOT": 6.779e-05,
    "MEAN_MOTION_DDOT": 0.0,
    "TLE_LINE1": "1 59523U 24073N   25315.27309122  .00006779  00000+0  25561-3 0  9992",
    "TLE_LINE2": "2 59523  42.9985 266.9246 0000321 134.9956 225.0922 15.27583907 88062",
    "COMMENT": "Grouped by shell and plane from TLE"
  }
]